[{"OBJECT_NAME":"STARLINK-35408","OBJECT_ID":"2025-223F","EPOCH":"2026-03-09T21:41:17.998656","MEAN_MOTION":15.30194054,"ECCENTRICITY":0.00010118,"INCLINATION":53.1579,"RA_OF_ASC_NODE":293.5275,"ARG_OF_PERICENTER":72.3043,"MEAN_ANOMALY":287.8069,"EPHEMERIS_TYPE":0,"CLASSIFICATION_TYPE":"U","NORAD_CAT_ID":65859,"ELEMENT_SET_NO":999,"REV_AT_EPOCH":2423,"BSTAR":0.00097361147,"MEAN_MOTION_DOT":0.00028582,"MEAN_MOTION_DDOT":0},{"OBJECT_NAME":"OBJECT P","OBJECT_ID":"2018-099P","EPOCH":"2026-03-09T16:35:55.790016","MEAN_MOTION":15.30834106,"ECCENTRICITY":0.00076856,"INCLINATION":97.4366,"RA_OF_ASC_NODE":131.9195,"ARG_OF_PERICENTER":276.7627,"MEAN_ANOMALY":83.2739,"EPHEMERIS_TYPE":0,"CLASSIFICATION_TYPE":"U","NORAD_CAT_ID":43771,"ELEMENT_SET_NO":999,"REV_AT_EPOCH":39830,"BSTAR":0.00063632878,"MEAN_MOTION_DOT":0.00018926,"MEAN_MOTION_DDOT":0}]
